{
"type": "FeatureCollection",
"name": "hospitals",
"crs": { "type": "name", "properties": { "name": "urn:ogc:def:crs:OGC:1.3:CRS84" } },
"features": [
{ "type": "Feature", "properties": { "element": "node", "id": 300138103, "name": "Prakash Hospital Pvt Ltd", "amenity": "hospital" }, "geometry": { "type": "Point", "coordinates": [ 77.3494026, 28.5854878 ] } },
{ "type": "Feature", "properties": { "element": "node", "id": 308730337, "name": "Sumitra Hospital", "amenity": "hospital" }, "geometry": { "type": "Point", "coordinates": [ 77.3529095, 28.5818659 ] } },
{ "type": "Feature", "properties": { "element": "node", "id": 915724540, "name": "Kailash Hospital & Heart Institute", "amenity": "hospital" }, "geometry": { "type": "Point", "coordinates": [ 77.3314139, 28.577404 ] } },
{ "type": "Feature", "properties": { "element": "node", "id": 1827509706, "name": "NMC Hospital", "amenity": "hospital" }, "geometry": { "type": "Point", "coordinates": [ 77.3402993, 28.5729253 ] } },
{ "type": "Feature", "properties": { "element": "node", "id": 2084317885, "name": "Bhardwaj Hospital", "amenity": "hospital" }, "geometry": { "type": "Point", "coordinates": [ 77.3355783, 28.5660388 ] } },
{ "type": "Feature", "properties": { "element": "node", "id": 2201187724, "name": "Ojjus Hospital", "amenity": "hospital" }, "geometry": { "type": "Point", "coordinates": [ 77.3595236, 28.5654904 ] } },
{ "type": "Feature", "properties": { "element": "node", "id": 3514828536, "name": "Cloudnine Hospital", "amenity": "hospital" }, "geometry": { "type": "Point", "coordinates": [ 77.3668926, 28.5787478 ] } },
{ "type": "Feature", "properties": { "element": "node", "id": 4791402824, "name": null, "amenity": "hospital" }, "geometry": { "type": "Point", "coordinates": [ 77.3702112, 28.5697412 ] } },
{ "type": "Feature", "properties": { "element": "node", "id": 5914729083, "name": "Dr. Bhimrao Ambedkar Multispeciality Hospital", "amenity": "hospital" }, "geometry": { "type": "Point", "coordinates": [ 77.3376879, 28.576653 ] } },
{ "type": "Feature", "properties": { "element": "node", "id": 7020925886, "name": "Yatharth Hospital, Gautam Buddha Nagar", "amenity": "hospital" }, "geometry": { "type": "Point", "coordinates": [ 77.384381, 28.5321788 ] } },
{ "type": "Feature", "properties": { "element": "node", "id": 7020925951, "name": "Government District Hospital, Gautam Buddha Nagar", "amenity": "hospital" }, "geometry": { "type": "Point", "coordinates": [ 77.3394731, 28.5770068 ] } },
{ "type": "Feature", "properties": { "element": "node", "id": 7024843272, "name": "R.N. Hospital", "amenity": "hospital" }, "geometry": { "type": "Point", "coordinates": [ 77.3522092, 28.6141769 ] } },
{ "type": "Feature", "properties": { "element": "node", "id": 7025153786, "name": "Icare Eye Hospital And Post Graduate Institute Glaucoma Research Centre", "amenity": "hospital" }, "geometry": { "type": "Point", "coordinates": [ 77.3355089, 28.5799524 ] } },
{ "type": "Feature", "properties": { "element": "node", "id": 7025481517, "name": "R K Medicare", "amenity": "hospital" }, "geometry": { "type": "Point", "coordinates": [ 77.3483944, 28.6267789 ] } },
{ "type": "Feature", "properties": { "element": "node", "id": 7025501342, "name": "Life Care Hospital, Gautam Buddha Nagar", "amenity": "hospital" }, "geometry": { "type": "Point", "coordinates": [ 77.3701425, 28.5935471 ] } },
{ "type": "Feature", "properties": { "element": "node", "id": 7025501343, "name": "Tirupati Eye Center", "amenity": "hospital" }, "geometry": { "type": "Point", "coordinates": [ 77.3570766, 28.5874352 ] } },
{ "type": "Feature", "properties": { "element": "node", "id": 7027392185, "name": "Vinayak Hospital", "amenity": "hospital" }, "geometry": { "type": "Point", "coordinates": [ 77.3280893, 28.5711965 ] } },
{ "type": "Feature", "properties": { "element": "node", "id": 7027683547, "name": "Ganpati Hospitaland Maternity Centre", "amenity": "hospital" }, "geometry": { "type": "Point", "coordinates": [ 77.3857208, 28.5429868 ] } },
{ "type": "Feature", "properties": { "element": "node", "id": 7027842413, "name": "J S Tomar Memorial Hospital Pvt. Ltd. - Noida", "amenity": "hospital" }, "geometry": { "type": "Point", "coordinates": [ 77.3758963, 28.5119505 ] } },
{ "type": "Feature", "properties": { "element": "node", "id": 7027933698, "name": "Shivam Hospital, Gautam Buddha Nagar", "amenity": "hospital" }, "geometry": { "type": "Point", "coordinates": [ 77.3467249, 28.6098891 ] } },
{ "type": "Feature", "properties": { "element": "node", "id": 7028082114, "name": "Ajit Surgical and Maternity Centre", "amenity": "hospital" }, "geometry": { "type": "Point", "coordinates": [ 77.3389501, 28.5982422 ] } },
{ "type": "Feature", "properties": { "element": "node", "id": 7028292035, "name": "Metro Heart Institute and Metro Multi Speciality Hospital", "amenity": "hospital" }, "geometry": { "type": "Point", "coordinates": [ 77.336034, 28.5974067 ] } },
{ "type": "Feature", "properties": { "element": "node", "id": 7029420523, "name": "Diveeksha Eye clinic", "amenity": "hospital" }, "geometry": { "type": "Point", "coordinates": [ 77.3351213, 28.5830991 ] } },
{ "type": "Feature", "properties": { "element": "node", "id": 7030406299, "name": "Max Hospital", "amenity": "hospital" }, "geometry": { "type": "Point", "coordinates": [ 77.3229977, 28.5742086 ] } },
{ "type": "Feature", "properties": { "element": "node", "id": 7030575139, "name": "Apollo Hospitals , Noida", "amenity": "hospital" }, "geometry": { "type": "Point", "coordinates": [ 77.3349001, 28.5794754 ] } },
{ "type": "Feature", "properties": { "element": "node", "id": 7030926269, "name": "Surbhi Hospital", "amenity": "hospital" }, "geometry": { "type": "Point", "coordinates": [ 77.3611736, 28.5792305 ] } },
{ "type": "Feature", "properties": { "element": "node", "id": 7035230160, "name": "Om Hospital, Gautam Buddha Nagar", "amenity": "hospital" }, "geometry": { "type": "Point", "coordinates": [ 77.3796433, 28.6054251 ] } },
{ "type": "Feature", "properties": { "element": "node", "id": 7035451664, "name": "Metro Hospitals and Heart Institute (Cardiology Wing)", "amenity": "hospital" }, "geometry": { "type": "Point", "coordinates": [ 77.3379467, 28.5973899 ] } },
{ "type": "Feature", "properties": { "element": "node", "id": 7035540138, "name": "Tripathi Hospital, Gautam Buddha Nagar", "amenity": "hospital" }, "geometry": { "type": "Point", "coordinates": [ 77.4009032, 28.5868864 ] } },
{ "type": "Feature", "properties": { "element": "node", "id": 7037320325, "name": "Indo Gulf Hospital & Diagnostics", "amenity": "hospital" }, "geometry": { "type": "Point", "coordinates": [ 77.3272443, 28.5771885 ] } },
{ "type": "Feature", "properties": { "element": "node", "id": 7038400970, "name": "City Hospital", "amenity": "hospital" }, "geometry": { "type": "Point", "coordinates": [ 77.343176, 28.596142 ] } },
{ "type": "Feature", "properties": { "element": "node", "id": 7151275052, "name": "Bharat Hospital", "amenity": "hospital" }, "geometry": { "type": "Point", "coordinates": [ 77.3739616, 28.6012158 ] } },
{ "type": "Feature", "properties": { "element": "node", "id": 9104120006, "name": "Om Prem Charitable Hospital", "amenity": "hospital" }, "geometry": { "type": "Point", "coordinates": [ 77.3498755, 28.6317452 ] } },
{ "type": "Feature", "properties": { "element": "node", "id": 9553991981, "name": "Felix Hospital", "amenity": "hospital" }, "geometry": { "type": "Point", "coordinates": [ 77.40855, 28.5059273 ] } },
{ "type": "Feature", "properties": { "element": "node", "id": 12897313095, "name": "Metro Heart Institute", "amenity": "hospital" }, "geometry": { "type": "Point", "coordinates": [ 77.33789, 28.5973655 ] } },
{ "type": "Feature", "properties": { "element": "node", "id": 12897313097, "name": "Metro Multi-speciality Hospital", "amenity": "hospital" }, "geometry": { "type": "Point", "coordinates": [ 77.3358702, 28.5974786 ] } },
{ "type": "Feature", "properties": { "element": "node", "id": 13462624125, "name": "Dr. Shreya Shivangi (MDS)", "amenity": "hospital" }, "geometry": { "type": "Point", "coordinates": [ 77.3984228, 28.5659736 ] } },
{ "type": "Feature", "properties": { "element": "way", "id": 71656934, "name": "Fortis Hospital", "amenity": "hospital" }, "geometry": { "type": "Polygon", "coordinates": [ [ [ 77.3717662, 28.6193644 ], [ 77.3721027, 28.619364 ], [ 77.3734868, 28.6193803 ], [ 77.3734213, 28.618148 ], [ 77.3733931, 28.6181121 ], [ 77.3732785, 28.618088 ], [ 77.3717684, 28.6181409 ], [ 77.3717662, 28.6193644 ] ] ] } },
{ "type": "Feature", "properties": { "element": "way", "id": 157745086, "name": "Metro Hospital & Heart Institute", "amenity": "hospital" }, "geometry": { "type": "Polygon", "coordinates": [ [ [ 77.337658, 28.5973338 ], [ 77.3378044, 28.5971838 ], [ 77.3381119, 28.5974153 ], [ 77.3379654, 28.5975653 ], [ 77.337658, 28.5973338 ] ] ] } },
{ "type": "Feature", "properties": { "element": "way", "id": 350735192, "name": "Prayag Hospital", "amenity": "hospital" }, "geometry": { "type": "Polygon", "coordinates": [ [ [ 77.365382, 28.5637285 ], [ 77.3655533, 28.5637292 ], [ 77.3655549, 28.5634469 ], [ 77.3653727, 28.5634462 ], [ 77.3652793, 28.5634457 ], [ 77.3652784, 28.5636025 ], [ 77.3653827, 28.5636029 ], [ 77.365382, 28.5637285 ] ] ] } },
{ "type": "Feature", "properties": { "element": "way", "id": 1153422470, "name": "Felix Hospital", "amenity": "hospital" }, "geometry": { "type": "Polygon", "coordinates": [ [ [ 77.4086821, 28.5060101 ], [ 77.408783, 28.5058625 ], [ 77.4086174, 28.5057751 ], [ 77.4085472, 28.5058779 ], [ 77.4085886, 28.5058997 ], [ 77.4085558, 28.5059477 ], [ 77.4085856, 28.5059634 ], [ 77.4085637, 28.5059956 ], [ 77.4086119, 28.5060211 ], [ 77.408636, 28.5059858 ], [ 77.4086821, 28.5060101 ] ] ] } },
{ "type": "Feature", "properties": { "element": "way", "id": 1153427328, "name": null, "amenity": "hospital" }, "geometry": { "type": "Polygon", "coordinates": [ [ [ 77.3408575, 28.5721766 ], [ 77.3403768, 28.5727015 ], [ 77.3406844, 28.572904 ], [ 77.3411618, 28.5724047 ], [ 77.3408575, 28.5721766 ] ] ] } },
{ "type": "Feature", "properties": { "element": "way", "id": 1421146889, "name": "Kailash Hospital", "amenity": "hospital" }, "geometry": { "type": "Polygon", "coordinates": [ [ [ 77.3756493, 28.599864 ], [ 77.3761804, 28.5998517 ], [ 77.3762017, 28.600563 ], [ 77.3756706, 28.6005753 ], [ 77.3756493, 28.599864 ] ] ] } },
{ "type": "Feature", "properties": { "element": "way", "id": 1422444719, "name": null, "amenity": "hospital" }, "geometry": { "type": "Polygon", "coordinates": [ [ [ 77.3378871, 28.5774838 ], [ 77.3364869, 28.5764663 ], [ 77.337769, 28.5750483 ], [ 77.3392979, 28.5761271 ], [ 77.3378871, 28.5774838 ] ] ] } }
]
}
