{
"type": "FeatureCollection",
"name": "traffic_signals",
"crs": { "type": "name", "properties": { "name": "urn:ogc:def:crs:OGC:1.3:CRS84" } },
"features": [
{ "type": "Feature", "properties": { "element": "node", "id": 277420424, "highway": "traffic_signals" }, "geometry": { "type": "Point", "coordinates": [ 77.3227373, 28.5802747 ] } },
{ "type": "Feature", "properties": { "element": "node", "id": 283639498, "highway": "traffic_signals" }, "geometry": { "type": "Point", "coordinates": [ 77.3743659, 28.6278523 ] } },
{ "type": "Feature", "properties": { "element": "node", "id": 283639499, "highway": "traffic_signals" }, "geometry": { "type": "Point", "coordinates": [ 77.374165, 28.6238954 ] } },
{ "type": "Feature", "properties": { "element": "node", "id": 300136191, "highway": "traffic_signals" }, "geometry": { "type": "Point", "coordinates": [ 77.3439565, 28.5824162 ] } },
{ "type": "Feature", "properties": { "element": "node", "id": 301037164, "highway": "traffic_signals" }, "geometry": { "type": "Point", "coordinates": [ 77.3727778, 28.609915 ] } },
{ "type": "Feature", "properties": { "element": "node", "id": 301037167, "highway": "traffic_signals" }, "geometry": { "type": "Point", "coordinates": [ 77.3728101, 28.6100058 ] } },
{ "type": "Feature", "properties": { "element": "node", "id": 301037169, "highway": "traffic_signals" }, "geometry": { "type": "Point", "coordinates": [ 77.3743467, 28.6239064 ] } },
{ "type": "Feature", "properties": { "element": "node", "id": 301037170, "highway": "traffic_signals" }, "geometry": { "type": "Point", "coordinates": [ 77.3729741, 28.6099035 ] } },
{ "type": "Feature", "properties": { "element": "node", "id": 301037171, "highway": "traffic_signals" }, "geometry": { "type": "Point", "coordinates": [ 77.3729824, 28.6099955 ] } },
{ "type": "Feature", "properties": { "element": "node", "id": 301037174, "highway": "traffic_signals" }, "geometry": { "type": "Point", "coordinates": [ 77.3745353, 28.6278474 ] } },
{ "type": "Feature", "properties": { "element": "node", "id": 301037177, "highway": "traffic_signals" }, "geometry": { "type": "Point", "coordinates": [ 77.3150936, 28.5807591 ] } },
{ "type": "Feature", "properties": { "element": "node", "id": 307369677, "highway": "traffic_signals" }, "geometry": { "type": "Point", "coordinates": [ 77.3735418, 28.6176758 ] } },
{ "type": "Feature", "properties": { "element": "node", "id": 307369679, "highway": "traffic_signals" }, "geometry": { "type": "Point", "coordinates": [ 77.3737928, 28.6179787 ] } },
{ "type": "Feature", "properties": { "element": "node", "id": 308896638, "highway": "traffic_signals" }, "geometry": { "type": "Point", "coordinates": [ 77.344175, 28.5713912 ] } },
{ "type": "Feature", "properties": { "element": "node", "id": 833271074, "highway": "traffic_signals" }, "geometry": { "type": "Point", "coordinates": [ 77.3440788, 28.5713242 ] } },
{ "type": "Feature", "properties": { "element": "node", "id": 836074211, "highway": "traffic_signals" }, "geometry": { "type": "Point", "coordinates": [ 77.3228681, 28.5739785 ] } },
{ "type": "Feature", "properties": { "element": "node", "id": 836074232, "highway": "traffic_signals" }, "geometry": { "type": "Point", "coordinates": [ 77.3188837, 28.5770656 ] } },
{ "type": "Feature", "properties": { "element": "node", "id": 836074234, "highway": "traffic_signals" }, "geometry": { "type": "Point", "coordinates": [ 77.3231341, 28.573556 ] } },
{ "type": "Feature", "properties": { "element": "node", "id": 836074249, "highway": "traffic_signals" }, "geometry": { "type": "Point", "coordinates": [ 77.3186526, 28.577533 ] } },
{ "type": "Feature", "properties": { "element": "node", "id": 836083113, "highway": "traffic_signals" }, "geometry": { "type": "Point", "coordinates": [ 77.3231954, 28.5738352 ] } },
{ "type": "Feature", "properties": { "element": "node", "id": 836083136, "highway": "traffic_signals" }, "geometry": { "type": "Point", "coordinates": [ 77.3227886, 28.5736531 ] } },
{ "type": "Feature", "properties": { "element": "node", "id": 841515946, "highway": "traffic_signals" }, "geometry": { "type": "Point", "coordinates": [ 77.3223667, 28.5803085 ] } },
{ "type": "Feature", "properties": { "element": "node", "id": 841516325, "highway": "traffic_signals" }, "geometry": { "type": "Point", "coordinates": [ 77.3223102, 28.5801144 ] } },
{ "type": "Feature", "properties": { "element": "node", "id": 841773686, "highway": "traffic_signals" }, "geometry": { "type": "Point", "coordinates": [ 77.3366111, 28.5904186 ] } },
{ "type": "Feature", "properties": { "element": "node", "id": 841773698, "highway": "traffic_signals" }, "geometry": { "type": "Point", "coordinates": [ 77.3151248, 28.5809448 ] } },
{ "type": "Feature", "properties": { "element": "node", "id": 841773726, "highway": "traffic_signals" }, "geometry": { "type": "Point", "coordinates": [ 77.3264908, 28.5831255 ] } },
{ "type": "Feature", "properties": { "element": "node", "id": 841773741, "highway": "traffic_signals" }, "geometry": { "type": "Point", "coordinates": [ 77.326815, 28.5829972 ] } },
{ "type": "Feature", "properties": { "element": "node", "id": 841773770, "highway": "traffic_signals" }, "geometry": { "type": "Point", "coordinates": [ 77.3324, 28.5873264 ] } },
{ "type": "Feature", "properties": { "element": "node", "id": 841773796, "highway": "traffic_signals" }, "geometry": { "type": "Point", "coordinates": [ 77.3411071, 28.5937678 ] } },
{ "type": "Feature", "properties": { "element": "node", "id": 841773839, "highway": "traffic_signals" }, "geometry": { "type": "Point", "coordinates": [ 77.3407576, 28.5936788 ] } },
{ "type": "Feature", "properties": { "element": "node", "id": 841773849, "highway": "traffic_signals" }, "geometry": { "type": "Point", "coordinates": [ 77.3320503, 28.5872077 ] } },
{ "type": "Feature", "properties": { "element": "node", "id": 841773856, "highway": "traffic_signals" }, "geometry": { "type": "Point", "coordinates": [ 77.3361965, 28.5902799 ] } },
{ "type": "Feature", "properties": { "element": "node", "id": 841773875, "highway": "traffic_signals" }, "geometry": { "type": "Point", "coordinates": [ 77.3362766, 28.5905284 ] } },
{ "type": "Feature", "properties": { "element": "node", "id": 841773881, "highway": "traffic_signals" }, "geometry": { "type": "Point", "coordinates": [ 77.3149898, 28.5808465 ] } },
{ "type": "Feature", "properties": { "element": "node", "id": 841773908, "highway": "traffic_signals" }, "geometry": { "type": "Point", "coordinates": [ 77.3269147, 28.5832768 ] } },
{ "type": "Feature", "properties": { "element": "node", "id": 841773944, "highway": "traffic_signals" }, "geometry": { "type": "Point", "coordinates": [ 77.3265633, 28.5832987 ] } },
{ "type": "Feature", "properties": { "element": "node", "id": 841773998, "highway": "traffic_signals" }, "geometry": { "type": "Point", "coordinates": [ 77.3152177, 28.580853 ] } },
{ "type": "Feature", "properties": { "element": "node", "id": 841774021, "highway": "traffic_signals" }, "geometry": { "type": "Point", "coordinates": [ 77.3323381, 28.587083 ] } },
{ "type": "Feature", "properties": { "element": "node", "id": 841774031, "highway": "traffic_signals" }, "geometry": { "type": "Point", "coordinates": [ 77.3409826, 28.5935837 ] } },
{ "type": "Feature", "properties": { "element": "node", "id": 841774093, "highway": "traffic_signals" }, "geometry": { "type": "Point", "coordinates": [ 77.3364049, 28.590268 ] } },
{ "type": "Feature", "properties": { "element": "node", "id": 843324383, "highway": "traffic_signals" }, "geometry": { "type": "Point", "coordinates": [ 77.3440142, 28.5991541 ] } },
{ "type": "Feature", "properties": { "element": "node", "id": 843324437, "highway": "traffic_signals" }, "geometry": { "type": "Point", "coordinates": [ 77.3441543, 28.5988556 ] } },
{ "type": "Feature", "properties": { "element": "node", "id": 843324602, "highway": "traffic_signals" }, "geometry": { "type": "Point", "coordinates": [ 77.3443935, 28.5990208 ] } },
{ "type": "Feature", "properties": { "element": "node", "id": 847791372, "highway": "traffic_signals" }, "geometry": { "type": "Point", "coordinates": [ 77.3316883, 28.5952601 ] } },
{ "type": "Feature", "properties": { "element": "node", "id": 847791376, "highway": "traffic_signals" }, "geometry": { "type": "Point", "coordinates": [ 77.3315591, 28.5955092 ] } },
{ "type": "Feature", "properties": { "element": "node", "id": 847791401, "highway": "traffic_signals" }, "geometry": { "type": "Point", "coordinates": [ 77.3317771, 28.5954274 ] } },
{ "type": "Feature", "properties": { "element": "node", "id": 847791420, "highway": "traffic_signals" }, "geometry": { "type": "Point", "coordinates": [ 77.3292667, 28.5980239 ] } },
{ "type": "Feature", "properties": { "element": "node", "id": 847791439, "highway": "traffic_signals" }, "geometry": { "type": "Point", "coordinates": [ 77.3291745, 28.5977631 ] } },
{ "type": "Feature", "properties": { "element": "node", "id": 847791449, "highway": "traffic_signals" }, "geometry": { "type": "Point", "coordinates": [ 77.3294377, 28.5977085 ] } },
{ "type": "Feature", "properties": { "element": "node", "id": 848554102, "highway": "traffic_signals" }, "geometry": { "type": "Point", "coordinates": [ 77.3160167, 28.5890166 ] } },
{ "type": "Feature", "properties": { "element": "node", "id": 848554105, "highway": "traffic_signals" }, "geometry": { "type": "Point", "coordinates": [ 77.3161624, 28.588985 ] } },
{ "type": "Feature", "properties": { "element": "node", "id": 848554142, "highway": "traffic_signals" }, "geometry": { "type": "Point", "coordinates": [ 77.3160837, 28.5889273 ] } },
{ "type": "Feature", "properties": { "element": "node", "id": 848554147, "highway": "traffic_signals" }, "geometry": { "type": "Point", "coordinates": [ 77.3161093, 28.5890808 ] } },
{ "type": "Feature", "properties": { "element": "node", "id": 849943357, "highway": "traffic_signals" }, "geometry": { "type": "Point", "coordinates": [ 77.3109558, 28.5862136 ] } },
{ "type": "Feature", "properties": { "element": "node", "id": 849943473, "highway": "traffic_signals" }, "geometry": { "type": "Point", "coordinates": [ 77.3107986, 28.5861444 ] } },
{ "type": "Feature", "properties": { "element": "node", "id": 849943546, "highway": "traffic_signals" }, "geometry": { "type": "Point", "coordinates": [ 77.3110408, 28.5860859 ] } },
{ "type": "Feature", "properties": { "element": "node", "id": 849943586, "highway": "traffic_signals" }, "geometry": { "type": "Point", "coordinates": [ 77.3108748, 28.5860024 ] } },
{ "type": "Feature", "properties": { "element": "node", "id": 1820903920, "highway": "traffic_signals" }, "geometry": { "type": "Point", "coordinates": [ 77.3329528, 28.5939146 ] } },
{ "type": "Feature", "properties": { "element": "node", "id": 1820903922, "highway": "traffic_signals" }, "geometry": { "type": "Point", "coordinates": [ 77.3327964, 28.5939918 ] } },
{ "type": "Feature", "properties": { "element": "node", "id": 1820903923, "highway": "traffic_signals" }, "geometry": { "type": "Point", "coordinates": [ 77.333009, 28.5940124 ] } },
{ "type": "Feature", "properties": { "element": "node", "id": 1820903925, "highway": "traffic_signals" }, "geometry": { "type": "Point", "coordinates": [ 77.3328763, 28.594112 ] } },
{ "type": "Feature", "properties": { "element": "node", "id": 6646317626, "highway": "traffic_signals" }, "geometry": { "type": "Point", "coordinates": [ 77.3441071, 28.5714659 ] } },
{ "type": "Feature", "properties": { "element": "node", "id": 6646317627, "highway": "traffic_signals" }, "geometry": { "type": "Point", "coordinates": [ 77.3440079, 28.571401 ] } },
{ "type": "Feature", "properties": { "element": "node", "id": 7150964024, "highway": "traffic_signals" }, "geometry": { "type": "Point", "coordinates": [ 77.3407748, 28.5938819 ] } },
{ "type": "Feature", "properties": { "element": "node", "id": 9308343356, "highway": "traffic_signals" }, "geometry": { "type": "Point", "coordinates": [ 77.3855415, 28.5138443 ] } },
{ "type": "Feature", "properties": { "element": "node", "id": 9843255232, "highway": "traffic_signals" }, "geometry": { "type": "Point", "coordinates": [ 77.3324587, 28.5871819 ] } },
{ "type": "Feature", "properties": { "element": "node", "id": 9843255240, "highway": "traffic_signals" }, "geometry": { "type": "Point", "coordinates": [ 77.3266395, 28.5833721 ] } },
{ "type": "Feature", "properties": { "element": "node", "id": 9843255243, "highway": "traffic_signals" }, "geometry": { "type": "Point", "coordinates": [ 77.3269072, 28.5830903 ] } },
{ "type": "Feature", "properties": { "element": "node", "id": 11773169926, "highway": "traffic_signals" }, "geometry": { "type": "Point", "coordinates": [ 77.3568947, 28.5921766 ] } },
{ "type": "Feature", "properties": { "element": "node", "id": 11773169927, "highway": "traffic_signals" }, "geometry": { "type": "Point", "coordinates": [ 77.3572617, 28.5922285 ] } }
]
}
